NORAD_CAT_ID,OBJECT_NAME,OBJECT_TYPE,EPOCH,MEAN_MOTION,ECCENTRICITY,INCLINATION,RA_OF_ASC_NODE,ARG_OF_PERICENTER,MEAN_ANOMALY,BSTAR,MEAN_MOTION_DOT,MEAN_MOTION_DDOT,TLE_LINE0,TLE_LINE1,TLE_LINE2,SEMIMAJOR_AXIS,PERIOD,APOGEE,PERIGEE,DECAYED
55791.0,STARLINK-5807,PAYLOAD,2023-10-09 09:09:52,14.98333305,0.0003053,69.999,269.1167,269.8518,90.2292,4.1117e-05,3.98e-06,0.0,0 STARLINK-5807,1 55791U 23028BC  23282.38185744  .00000398  00000-0  41117-4 0  9997,2 55791  69.9990 269.1167 0003053 269.8518  90.2292 14.98333305 34856,6950.183,96.107,574.17,569.926,0.0
55791.0,STARLINK-5807,PAYLOAD,2023-10-09 21:58:57,14.98330492,0.0003064,69.9991,267.77,269.8923,90.1885,-3.6456e-06,-1.37e-06,0.0,0 STARLINK-5807,1 55791U 23028BC  23282.91594005 -.00000137  00000-0 -36456-5 0  9994,2 55791  69.9991 267.7700 0003064 269.8923  90.1885 14.98330492 34947,6950.191,96.107,574.186,569.927,0.0
55791.0,STARLINK-5807,PAYLOAD,2023-10-10 02:47:22,14.98316779,0.0003371,69.9988,267.266,272.6656,87.4117,-0.00017531,-2.184e-05,0.0,0 STARLINK-5807,1 55791U 23028BC  23283.11623353 -.00002184  00000-0 -17531-3 0  9991,2 55791  69.9988 267.2660 0003371 272.6656  87.4117 14.98316779 34960,6950.234,96.108,574.442,569.756,0.0
55791.0,STARLINK-5807,PAYLOAD,2023-10-10 09:11:54,14.98319291,0.000291,69.9992,266.5918,269.1251,90.9575,-0.00014091,-1.773e-05,0.0,0 STARLINK-5807,1 55791U 23028BC  23283.38327326 -.00001773  00000-0 -14091-3 0  9992,2 55791  69.9992 266.5918 0002910 269.1251  90.9575 14.98319291 35019,6950.226,96.108,574.114,570.068,0.0
55791.0,STARLINK-5807,PAYLOAD,2023-10-10 22:00:58,14.98324028,0.0003119,69.9988,265.2448,274.4309,85.6494,-8.3775e-06,-1.93e-06,0.0,0 STARLINK-5807,1 55791U 23028BC  23283.91734817 -.00000193  00000-0 -83775-5 0  9990,2 55791  69.9988 265.2448 0003119 274.4309  85.6494 14.98324028 35096,6950.211,96.107,574.244,569.909,0.0
55791.0,STARLINK-5807,PAYLOAD,2023-10-11 02:49:22,14.98327322,0.0003072,69.9989,264.74,273.7451,86.3356,2.7726e-05,2.38e-06,0.0,0 STARLINK-5807,1 55791U 23028BC  23284.11762553  .00000238  00000-0  27726-4 0  9992,2 55791  69.9989 264.7400 0003072 273.7451  86.3356 14.98327322 35115,6950.201,96.107,574.201,569.931,0.0
55791.0,STARLINK-5807,PAYLOAD,2023-10-11 09:13:54,14.98331994,0.0002589,70.0,264.0677,268.3727,91.7136,4.0044e-05,3.85e-06,0.0,0 STARLINK-5807,1 55791U 23028BC  23284.38466252  .00000385  00000-0  40044-4 0  9999,2 55791  70.0000 264.0677 0002589 268.3727  91.7136 14.98331994 35160,6950.187,96.107,573.851,570.252,0.0
55791.0,STARLINK-5807,PAYLOAD,2023-10-12 04:27:31,14.98337762,0.0002399,70.0002,262.0477,272.456,87.6324,-4.5813e-05,-6.4e-06,0.0,0 STARLINK-5807,1 55791U 23028BC  23285.18578105 -.00000640  00000-0 -45813-4 0  9994,2 55791  70.0002 262.0477 0002399 272.4560  87.6324 14.98337762 35272,6950.169,96.107,573.701,570.367,0.0
55791.0,STARLINK-5807,PAYLOAD,2023-10-12 09:15:55,14.9832529,0.0002477,70.0005,261.5424,264.8351,95.2526,0.00018365,2.099e-05,0.0,0 STARLINK-5807,1 55791U 23028BC  23285.38606230  .00002099  00000-0  18365-3 0  9996,2 55791  70.0005 261.5424 0002477 264.8351  95.2526 14.98325290 35318,6950.207,96.107,573.794,570.351,0.0
55791.0,STARLINK-5807,PAYLOAD,2023-10-12 15:40:28,14.9832684,0.0002539,70.0005,260.8692,267.3519,92.7349,0.00013439,1.511e-05,0.0,0 STARLINK-5807,1 55791U 23028BC  23285.65310286  .00001511  00000-0  13439-3 0  9994,2 55791  70.0005 260.8692 0002539 267.3519  92.7349 14.98326840 35340,6950.203,96.107,573.832,570.303,0.0
55791.0,STARLINK-5807,PAYLOAD,2023-10-13 04:29:27,14.98393385,0.0002929,70.0005,259.5218,263.1055,96.9771,0.00064142,7.581e-05,0.0,0 STARLINK-5807,1 55791U 23028BC  23286.18712823  .00007581  00000-0  64142-3 0  9996,2 55791  70.0005 259.5218 0002929 263.1055  96.9771 14.98393385 35423,6949.997,96.103,573.898,569.826,0.0
55791.0,STARLINK-5807,PAYLOAD,2023-10-13 09:17:56,14.98339228,0.0002879,70.0005,259.0165,267.0324,93.0506,-1.1873e-05,-2.35e-06,0.0,0 STARLINK-5807,1 55791U 23028BC  23286.38745566 -.00000235  00000-0 -11873-4 0  9993,2 55791  70.0005 259.0165 0002879 267.0324  93.0506 14.98339228 35458,6950.164,96.106,574.03,570.028,0.0
55791.0,STARLINK-5807,PAYLOAD,2023-10-14 04:31:31,14.98345977,0.0002643,70.0005,256.9973,261.453,98.633,0.00024652,2.851e-05,0.0,0 STARLINK-5807,1 55791U 23028BC  23287.18856199  .00002851  00000-0  24652-3 0  9999,2 55791  70.0005 256.9973 0002643 261.4530  98.6330 14.98345977 35574,6950.143,96.106,573.845,570.172,0.0
55791.0,STARLINK-5807,PAYLOAD,2023-10-14 07:43:48,14.98338377,0.0002884,69.9998,256.6603,267.4923,92.5906,4.095e-05,3.96e-06,0.0,0 STARLINK-5807,1 55791U 23028BC  23287.32209085  .00000396  00000-0  40950-4 0  9993,2 55791  69.9998 256.6603 0002884 267.4923  92.5906 14.98338377 35598,6950.167,96.106,574.036,570.028,0.0
55791.0,STARLINK-5807,PAYLOAD,2023-10-14 15:44:30,14.98325812,0.0002501,70.0016,255.8189,275.8977,84.1897,-0.00011015,-1.407e-05,0.0,0 STARLINK-5807,1 55791U 23028BC  23287.65590361 -.00001407  00000-0 -11015-3 0  9994,2 55791  70.0016 255.8189 0002501 275.8977  84.1897 14.98325812 35642,6950.206,96.107,573.809,570.333,0.0
55791.0,STARLINK-5807,PAYLOAD,2023-10-14 22:09:02,14.98321596,0.0002838,70.0011,255.1449,269.2552,90.8282,-7.0199e-05,-9.3e-06,0.0,0 STARLINK-5807,1 55791U 23028BC  23287.92294437 -.00000930  00000-0 -70199-4 0  9998,2 55791  70.0011 255.1449 0002838 269.2552  90.8282 14.98321596 35690,6950.219,96.108,574.056,570.111,0.0
55791.0,STARLINK-5807,PAYLOAD,2023-10-15 07:45:51,14.98319117,0.0002864,70.0002,254.1354,267.9473,92.1358,-0.00015145,-1.899e-05,0.0,0 STARLINK-5807,1 55791U 23028BC  23288.32351144 -.00001899  00000-0 -15145-3 0  9996,2 55791  70.0002 254.1354 0002864 267.9473  92.1358 14.98319117 35741,6950.227,96.108,574.082,570.101,0.0
55791.0,STARLINK-5807,PAYLOAD,2023-10-15 15:46:31,14.9832805,0.000297,70.0002,253.2951,267.5154,92.5665,-7.3352e-05,-9.68e-06,0.0,0 STARLINK-5807,1 55791U 23028BC  23288.65730463 -.00000968  00000-0 -73352-4 0  9998,2 55791  70.0002 253.2951 0002970 267.5154  92.5665 14.98328050 35790,6950.199,96.107,574.128,570.0,0.0
55791.0,STARLINK-5807,PAYLOAD,2023-10-15 22:11:03,14.98326604,0.0003468,69.9989,252.6206,270.6998,89.3763,-4.3215e-05,-6.09e-06,0.0,0 STARLINK-5807,1 55791U 23028BC  23288.92434482 -.00000609  00000-0 -43215-4 0  9997,2 55791  69.9989 252.6206 0003468 270.6998  89.3763 14.98326604 35843,6950.203,96.107,574.479,569.658,0.0
55791.0,STARLINK-5807,PAYLOAD,2023-10-16 07:47:51,14.98331729,0.0002956,70.0001,251.611,271.8433,88.2387,0.00016296,1.852e-05,0.0,0 STARLINK-5807,1 55791U 23028BC  23289.32489679  .00001852  00000-0  16296-3 0  9997,2 55791  70.0001 251.6110 0002956 271.8433  88.2387 14.98331729 35891,6950.188,96.107,574.107,569.998,0.0
55791.0,STARLINK-5807,PAYLOAD,2023-10-17 06:13:44,14.98327876,0.0003088,69.9999,249.2547,270.8411,89.2394,0.00015009,1.698e-05,0.0,0 STARLINK-5807,1 55791U 23028BC  23290.25953779  .00001698  00000-0  15009-3 0  9997,2 55791  69.9999 249.2547 0003088 270.8411  89.2394 14.98327876 36048,6950.199,96.107,574.211,569.918,0.0
55791.0,STARLINK-5807,PAYLOAD,2023-10-17 20:38:56,14.98332902,0.0002898,70.0004,247.7404,267.0178,93.0649,-1.5016e-05,-2.72e-06,0.0,0 STARLINK-5807,1 55791U 23028BC  23290.86037887 -.00000272  00000-0 -15016-4 0  9995,2 55791  70.0004 247.7404 0002898 267.0178  93.0649 14.98332902 36120,6950.184,96.107,574.063,570.035,0.0
55791.0,STARLINK-5807,PAYLOAD,2023-10-18 03:03:29,14.98331836,0.0002911,70.0001,247.0664,265.7655,94.3171,-3.6946e-05,-5.34e-06,0.0,0 STARLINK-5807,1 55791U 23028BC  23291.12741939 -.00000534  00000-0 -36946-4 0  9991,2 55791  70.0001 247.0664 0002911 265.7655  94.3171 14.98331836 36173,6950.187,96.107,574.075,570.029,0.0
55791.0,STARLINK-5807,PAYLOAD,2023-10-18 14:16:25,14.98333331,0.0002621,70.0004,245.8885,273.1645,86.9214,-6.585e-05,-8.79e-06,0.0,0 STARLINK-5807,1 55791U 23028BC  23291.59473929 -.00000879  00000-0 -65850-4 0  9991,2 55791  70.0004 245.8885 0002621 273.1645  86.9214 14.98333331 36242,6950.183,96.107,573.869,570.226,0.0
55791.0,STARLINK-5807,PAYLOAD,2023-10-19 04:41:37,14.98332689,0.0002682,69.9996,244.3732,266.6135,93.4717,-1.3728e-05,-2.57e-06,0.0,0 STARLINK-5807,1 55791U 23028BC  23292.19557553 -.00000257  00000-0 -13728-4 0  9991,2 55791  69.9996 244.3732 0002682 266.6135  93.4717 14.98332689 36327,6950.185,96.107,573.914,570.186,0.0
55791.0,STARLINK-5807,PAYLOAD,2023-10-19 06:17:45,14.98335435,0.0002593,69.9999,244.2053,266.6195,93.4668,1.2031e-05,5.1e-07,0.0,0 STARLINK-5807,1 55791U 23028BC  23292.26233315  .00000051  00000-0  12031-4 0  9992,2 55791  69.9999 244.2053 0002593 266.6195  93.4668 14.98335435 36341,6950.176,96.107,573.843,570.239,0.0
55791.0,STARLINK-5807,PAYLOAD,2023-10-19 20:42:58,14.98321406,0.0003023,70.0001,242.6909,272.9847,87.0966,9.0569e-05,9.88e-06,0.0,0 STARLINK-5807,1 55791U 23028BC  23292.86317787  .00000988  00000-0  90569-4 0  9995,2 55791  70.0001 242.6909 0003023 272.9847  87.0966 14.98321406 36436,6950.219,96.108,574.186,569.983,0.0
55791.0,STARLINK-5807,PAYLOAD,2023-10-20 06:19:46,14.98329171,0.0002698,70.0005,241.6801,269.1904,90.8945,5.3835e-06,-2.9e-07,0.0,0 STARLINK-5807,1 55791U 23028BC  23293.26373655 -.00000029  00000-0  53835-5 0  9999,2 55791  70.0005 241.6801 0002698 269.1904  90.8945 14.98329171 36480,6950.195,96.107,573.936,570.185,0.0
55791.0,STARLINK-5807,PAYLOAD,2023-10-20 22:21:07,14.98326615,0.000257,70.0012,239.999,261.398,98.6888,-7.0503e-05,-9.34e-06,0.0,0 STARLINK-5807,1 55791U 23028BC  23293.93134129 -.00000934  00000-0 -70503-4 0  9990,2 55791  70.0012 239.9990 0002570 261.3980  98.6888 14.98326615 36598,6950.203,96.107,573.855,570.282,0.0
55791.0,STARLINK-5807,PAYLOAD,2023-10-21 06:21:48,14.98335441,0.0002619,70.0014,239.1579,262.0168,98.0694,-0.00016859,-2.104e-05,0.0,0 STARLINK-5807,1 55791U 23028BC  23294.26513944 -.00002104  00000-0 -16859-3 0  9997,2 55791  70.0014 239.1579 0002619 262.0168  98.0694 14.98335441 36636,6950.176,96.107,573.861,570.221,0.0
